OBJECT_NAME,OBJECT_ID,EPOCH,MEAN_MOTION,ECCENTRICITY,INCLINATION,RA_OF_ASC_NODE,ARG_OF_PERICENTER,MEAN_ANOMALY,EPHEMERIS_TYPE,CLASSIFICATION_TYPE,NORAD_CAT_ID,ELEMENT_SET_NO,REV_AT_EPOCH,BSTAR,MEAN_MOTION_DOT,MEAN_MOTION_DDOT
TIANMU-1 21,2023-208C,2026-06-21T11:37:49.651680,15.35141113,.0005737,97.4507,292.1457,305.0266,55.0438,0,U,58662,999,13822,.23428E-3,.7912E-4,0
TIANMU-1 22,2023-208D,2026-06-21T12:24:19.951776,15.31108395,.0002791,97.4501,288.7713,346.8495,13.2672,0,U,58663,999,13799,.20026E-3,.594E-4,0
TIANMU-1 15,2024-004A,2026-06-21T13:18:32.623200,15.27060875,.0006262,97.4674,358.7457,346.3791,13.7278,0,U,58700,999,13644,.17035E-3,.4449E-4,0
TIANMU-1 16,2024-004B,2026-06-21T13:04:10.677792,15.26785843,.0005379,97.4622,357.9677,352.3663,7.7493,0,U,58701,999,13644,.17484E-3,.453E-4,0
TIANMU-1 17,2024-004C,2026-06-21T12:43:14.114208,15.26784809,.000507,97.4648,358.4398,359.4602,0.6630,0,U,58702,999,13643,.17987E-3,.4662E-4,0
TIANMU-1 18,2024-004D,2026-06-21T12:08:11.152032,15.27041126,.0003609,97.4666,358.6735,0.4275,359.6966,0,U,58703,999,13643,.16032E-3,.4179E-4,0
INSAT-3DS,2024-033A,2026-06-20T09:47:51.249120,1.00271082,.0001171,0.0479,106.3313,331.3573,59.9873,0,U,58990,999,4710,0,-.16E-5,0
METEOR-M2 4,2024-039A,2026-06-21T13:04:16.844160,14.22429890,.0007535,98.7012,131.7880,149.0442,211.1182,0,U,59051,999,11988,.21415E-4,.4E-7,0
GOES 19,2024-119A,2026-06-20T08:54:38.574720,1.00270517,.0000407,0.0015,112.2371,49.5773,165.2311,0,U,60133,999,699,0,-.253E-5,0
MTG-S1,2025-143A,2026-06-20T09:23:49.962336,1.00399694,.0000829,0.6001,339.7327,294.1194,133.2187,0,U,64723,999,345,0,-.5E-7,0
METOP-SGA1,2025-172A,2026-06-16T03:40:47.624736,14.21509720,.0000902,98.6644,226.8998,93.8213,266.3067,0,U,65159,999,4364,.41999845E-4,.49E-6,0
FENGYUN 3H,2025-219A,2026-06-20T10:09:44.767584,14.19920896,.0001572,98.6768,112.1297,74.5092,285.6258,0,U,65815,999,3784,.36111E-4,.33E-6,0
